OBJECT_NAME,OBJECT_ID,EPOCH,MEAN_MOTION,ECCENTRICITY,INCLINATION,RA_OF_ASC_NODE,ARG_OF_PERICENTER,MEAN_ANOMALY,EPHEMERIS_TYPE,CLASSIFICATION_TYPE,NORAD_CAT_ID,ELEMENT_SET_NO,REV_AT_EPOCH,BSTAR,MEAN_MOTION_DOT,MEAN_MOTION_DDOT
HULIANWANG DIGUI-61,2025-174D,2026-03-01T11:33:55.208736,13.24419591,.0001154,86.4934,288.4273,83.3011,276.8254,0,U,65167,999,2653,.12716E-3,.69E-6,0
HULIANWANG DIGUI-62,2025-174E,2026-03-01T11:44:44.275776,13.24420949,.0001141,86.4875,288.3163,86.2214,273.9051,0,U,65168,999,2653,.17611E-3,.9E-6,0
HULIANWANG DIGUI-63,2025-174F,2026-03-01T11:55:35.817312,13.24421305,.0001174,86.4928,288.4212,83.8509,276.2759,0,U,65169,999,2653,.16468E-3,.85E-6,0
HULIANWANG DIGUI-64,2025-174G,2026-03-01T12:06:28.741248,13.24421348,.0001154,86.4887,288.3456,86.0242,274.1024,0,U,65170,999,2653,.16861E-3,.87E-6,0
HULIANWANG DIGUI-65,2025-174H,2026-03-01T10:39:23.117184,13.24421912,.0001206,86.4851,288.3067,84.2620,275.8651,0,U,65171,999,2652,.1202E-3,.66E-6,0
HULIANWANG DIGUI-66,2025-174J,2026-03-01T10:28:32.448288,13.24421550,.0001232,86.4886,288.3741,86.6955,273.4320,0,U,65172,999,2652,.15408E-3,.81E-6,0
HULIANWANG DIGUI-67,2025-174K,2026-03-01T10:50:20.503680,13.24421191,.0001235,86.4898,288.4021,85.0949,275.0326,0,U,65173,999,2649,.10053E-3,.58E-6,0
HULIANWANG DIGUI-68,2025-178A,2026-03-01T11:22:47.228736,13.24423634,.0002047,86.4934,49.8706,81.9382,278.1984,0,U,65228,999,2605,.61882E-4,.41E-6,0
HULIANWANG DIGUI-69,2025-178B,2026-03-01T11:12:19.778112,13.24417473,.0001979,86.4954,49.9072,82.6824,277.4535,0,U,65229,999,2605,.98888E-4,.57E-6,0
HULIANWANG DIGUI-70,2025-178C,2026-03-01T11:01:23.520000,13.24418367,.0002087,86.4892,49.7809,81.9569,278.1802,0,U,65230,999,2605,.10823E-3,.61E-6,0
HULIANWANG DIGUI-71,2025-178D,2026-03-01T10:50:28.838688,13.24419326,.0002031,86.4950,49.8955,82.7548,277.3817,0,U,65231,999,2605,.15113E-3,.8E-6,0
HULIANWANG DIGUI-72,2025-178E,2026-03-01T10:39:32.553792,13.24419753,.0002019,86.4934,49.8567,83.7462,276.3902,0,U,65232,999,2605,.10101E-3,.58E-6,0
HULIANWANG DIGUI-73,2025-187A,2026-03-01T11:31:36.805440,13.29342187,.0001052,50.0035,232.1637,125.0107,235.0864,0,U,65305,999,2537,.65789E-4,-.94E-6,0
HULIANWANG DIGUI-74,2025-187B,2026-03-01T11:07:31.849248,13.29342654,.0001054,50.0078,232.1419,124.7805,235.3167,0,U,65306,999,2537,.87265E-4,-.84E-6,0
HULIANWANG DIGUI-75,2025-187C,2026-03-01T12:31:48.938016,13.29341751,.0001052,50.0070,231.7741,124.9309,235.1662,0,U,65307,999,2538,.95358E-4,-.8E-6,0
HULIANWANG DIGUI-76,2025-187D,2026-03-01T12:08:01.335264,13.29339135,.0001044,49.9994,232.2291,122.6553,237.4420,0,U,65308,999,2537,.10453E-3,-.76E-6,0
HULIANWANG DIGUI-77,2025-187E,2026-03-01T11:55:47.308512,13.29341054,.000108,50.0030,232.2381,123.0449,237.0527,0,U,65309,999,2537,.94864E-4,-.8E-6,0
HULIANWANG DIGUI-78,2025-187F,2026-03-01T10:55:38.512704,13.29341358,.0001037,50.0094,232.1244,124.7363,235.3607,0,U,65310,999,2537,.85821E-4,-.84E-6,0
HULIANWANG DIGUI-79,2025-187G,2026-03-01T12:19:37.663968,13.29342956,.0001049,50.0024,232.3161,124.0741,236.0230,0,U,65311,999,2537,.10333E-3,-.76E-6,0
HULIANWANG DIGUI-80,2025-187H,2026-03-01T11:43:43.006944,13.29341055,.000107,50.0014,232.1732,123.2397,236.8578,0,U,65312,999,2537,.77476E-4,-.88E-6,0
HULIANWANG DIGUI-81,2025-187J,2026-03-01T11:19:42.834720,13.29341076,.0001069,50.0053,232.1492,124.1329,235.9645,0,U,65313,999,2538,.77567E-4,-.88E-6,0
HULIANWANG DIGUI-82,2025-220A,2026-03-01T12:11:59.418240,13.24421535,.0002208,86.4897,80.2317,103.5718,256.5662,0,U,65817,999,2066,.64227E-4,.42E-6,0
HULIANWANG DIGUI-83,2025-220B,2026-03-01T12:01:10.743456,13.24420732,.0002202,86.4920,80.2637,103.5537,256.5842,0,U,65818,999,2066,.39665E-4,.32E-6,0
HULIANWANG DIGUI-84,2025-220C,2026-03-01T11:50:15.795168,13.24421194,.0002201,86.4857,80.1595,102.6689,257.4692,0,U,65819,999,2066,.56616E-4,.39E-6,0
HULIANWANG DIGUI-85,2025-220D,2026-03-01T11:39:19.204416,13.24421756,.0002189,86.4918,80.2539,103.6546,256.4832,0,U,65820,999,2066,.99534E-4,.57E-6,0
HULIANWANG DIGUI-86,2025-220E,2026-03-01T11:28:33.792096,13.24420566,.0002187,86.4897,80.2159,103.5393,256.5985,0,U,65821,999,2066,.89162E-4,.53E-6,0
HULIANWANG DIGUI-87,2025-231A,2026-03-01T10:23:49.425216,13.29330054,.0000605,49.9988,202.3375,166.6445,193.4443,0,U,65995,999,1855,.42136E-4,-.104E-5,0
HULIANWANG DIGUI-88,2025-231B,2026-03-01T10:35:52.877472,13.29329053,.0000619,49.9974,202.3677,172.5640,187.5241,0,U,65996,999,1855,.44253E-4,-.103E-5,0
HULIANWANG DIGUI-89,2025-231C,2026-03-01T10:11:47.478048,13.29329726,.0000629,49.9952,202.2556,172.7733,187.3149,0,U,65997,999,1855,.41326E-4,-.105E-5,0
HULIANWANG DIGUI-90,2025-231D,2026-03-01T09:59:45.693312,13.29329986,.0000602,49.9982,202.2446,172.2855,187.8026,0,U,65998,999,1855,.39598E-4,-.106E-5,0
