HULIANWANG DIGUI-61     
1 65167U 25174D   26060.48188899  .00000069  00000+0  12716-3 0  9997
2 65167  86.4934 288.4273 0001154  83.3011 276.8254 13.24419591 26531
HULIANWANG DIGUI-62     
1 65168U 25174E   26060.48940134  .00000090  00000+0  17611-3 0  9999
2 65168  86.4875 288.3163 0001141  86.2214 273.9051 13.24420949 26538
HULIANWANG DIGUI-63     
1 65169U 25174F   26060.49694233  .00000085  00000+0  16468-3 0  9990
2 65169  86.4928 288.4212 0001174  83.8509 276.2759 13.24421305 26538
HULIANWANG DIGUI-64     
1 65170U 25174G   26060.50449932  .00000087  00000+0  16861-3 0  9997
2 65170  86.4887 288.3456 0001154  86.0242 274.1024 13.24421348 26539
HULIANWANG DIGUI-65     
1 65171U 25174H   26060.44401756  .00000066  00000+0  12020-3 0  9993
2 65171  86.4851 288.3067 0001206  84.2620 275.8651 13.24421912 26527
HULIANWANG DIGUI-66     
1 65172U 25174J   26060.43648667  .00000081  00000+0  15408-3 0  9997
2 65172  86.4886 288.3741 0001232  86.6955 273.4320 13.24421550 26526
HULIANWANG DIGUI-67     
1 65173U 25174K   26060.45162620  .00000058  00000+0  10053-3 0  9995
2 65173  86.4898 288.4021 0001235  85.0949 275.0326 13.24421191 26492
HULIANWANG DIGUI-68     
1 65228U 25178A   26060.47415774  .00000041  00000+0  61882-4 0  9992
2 65228  86.4934  49.8706 0002047  81.9382 278.1984 13.24423634 26051
HULIANWANG DIGUI-69     
1 65229U 25178B   26060.46689558  .00000057  00000+0  98888-4 0  9998
2 65229  86.4954  49.9072 0001979  82.6824 277.4535 13.24417473 26051
HULIANWANG DIGUI-70     
1 65230U 25178C   26060.45930000  .00000061  00000+0  10823-3 0  9997
2 65230  86.4892  49.7809 0002087  81.9569 278.1802 13.24418367 26057
HULIANWANG DIGUI-71     
1 65231U 25178D   26060.45172267  .00000080  00000+0  15113-3 0  9999
2 65231  86.4950  49.8955 0002031  82.7548 277.3817 13.24419326 26054
HULIANWANG DIGUI-72     
1 65232U 25178E   26060.44412678  .00000058  00000+0  10101-3 0  9999
2 65232  86.4934  49.8567 0002019  83.7462 276.3902 13.24419753 26056
HULIANWANG DIGUI-73     
1 65305U 25187A   26060.48028710 -.00000094  00000+0  65789-4 0  9998
2 65305  50.0035 232.1637 0001052 125.0107 235.0864 13.29342187 25377
HULIANWANG DIGUI-74     
1 65306U 25187B   26060.46356307 -.00000084  00000+0  87265-4 0  9995
2 65306  50.0078 232.1419 0001054 124.7805 235.3167 13.29342654 25374
HULIANWANG DIGUI-75     
1 65307U 25187C   26060.52209419 -.00000080  00000+0  95358-4 0  9992
2 65307  50.0070 231.7741 0001052 124.9309 235.1662 13.29341751 25385
HULIANWANG DIGUI-76     
1 65308U 25187D   26060.50557101 -.00000076  00000+0  10453-3 0  9992
2 65308  49.9994 232.2291 0001044 122.6553 237.4420 13.29339135 25370
HULIANWANG DIGUI-77     
1 65309U 25187E   26060.49707533 -.00000080  00000+0  94864-4 0  9991
2 65309  50.0030 232.2381 0001080 123.0449 237.0527 13.29341054 25371
HULIANWANG DIGUI-78     
1 65310U 25187F   26060.45530686 -.00000084  00000+0  85821-4 0  9999
2 65310  50.0094 232.1244 0001037 124.7363 235.3607 13.29341358 25372
HULIANWANG DIGUI-79     
1 65311U 25187G   26060.51363037 -.00000076  00000+0  10333-3 0  9997
2 65311  50.0024 232.3161 0001049 124.0741 236.0230 13.29342956 25377
HULIANWANG DIGUI-80     
1 65312U 25187H   26060.48869221 -.00000088  00000+0  77476-4 0  9995
2 65312  50.0014 232.1732 0001070 123.2397 236.8578 13.29341055 25373
HULIANWANG DIGUI-81     
1 65313U 25187J   26060.47202355 -.00000088  00000+0  77567-4 0  9995
2 65313  50.0053 232.1492 0001069 124.1329 235.9645 13.29341076 25382
HULIANWANG DIGUI-82     
1 65817U 25220A   26060.50832660  .00000042  00000+0  64227-4 0  9992
2 65817  86.4897  80.2317 0002208 103.5718 256.5662 13.24421535 20665
HULIANWANG DIGUI-83     
1 65818U 25220B   26060.50081879  .00000032  00000+0  39665-4 0  9998
2 65818  86.4920  80.2637 0002202 103.5537 256.5842 13.24420732 20669
HULIANWANG DIGUI-84     
1 65819U 25220C   26060.49323837  .00000039  00000+0  56616-4 0  9992
2 65819  86.4857  80.1595 0002201 102.6689 257.4692 13.24421194 20664
HULIANWANG DIGUI-85     
1 65820U 25220D   26060.48563894  .00000057  00000+0  99534-4 0  9998
2 65820  86.4918  80.2539 0002189 103.6546 256.4832 13.24421756 20660
HULIANWANG DIGUI-86     
1 65821U 25220E   26060.47816889  .00000053  00000+0  89162-4 0  9995
2 65821  86.4897  80.2159 0002187 103.5393 256.5985 13.24420566 20660
HULIANWANG DIGUI-87     
1 65995U 25231A   26060.43321094 -.00000104  00000+0  42136-4 0  9992
2 65995  49.9988 202.3375 0000605 166.6445 193.4443 13.29330054 18555
HULIANWANG DIGUI-88     
1 65996U 25231B   26060.44158423 -.00000103  00000+0  44253-4 0  9999
2 65996  49.9974 202.3677 0000619 172.5640 187.5241 13.29329053 18551
HULIANWANG DIGUI-89     
1 65997U 25231C   26060.42485507 -.00000105  00000+0  41326-4 0  9994
2 65997  49.9952 202.2556 0000629 172.7733 187.3149 13.29329726 18551
HULIANWANG DIGUI-90     
1 65998U 25231D   26060.41650108 -.00000106  00000+0  39598-4 0  9994
2 65998  49.9982 202.2446 0000602 172.2855 187.8026 13.29329986 18551
